[{"OBJECT_NAME":"GEESAT-3 04","OBJECT_ID":"2024-159D","EPOCH":"2026-03-09T22:19:33.498048","MEAN_MOTION":14.82863274,"ECCENTRICITY":0.00023149,"INCLINATION":49.9968,"RA_OF_ASC_NODE":93.6618,"ARG_OF_PERICENTER":46.406,"MEAN_ANOMALY":313.707,"EPHEMERIS_TYPE":0,"CLASSIFICATION_TYPE":"U","NORAD_CAT_ID":61014,"ELEMENT_SET_NO":999,"REV_AT_EPOCH":8327,"BSTAR":0.00041507261,"MEAN_MOTION_DOT":3.175e-5,"MEAN_MOTION_DDOT":0},{"OBJECT_NAME":"UNKNOWN","OBJECT_ID":"","EPOCH":"2026-03-09T22:20:15.128160","MEAN_MOTION":14.68191429,"ECCENTRICITY":0.01272152,"INCLINATION":88.4815,"RA_OF_ASC_NODE":244.0436,"ARG_OF_PERICENTER":152.1426,"MEAN_ANOMALY":208.6681,"EPHEMERIS_TYPE":0,"CLASSIFICATION_TYPE":"U","NORAD_CAT_ID":270425,"ELEMENT_SET_NO":999,"REV_AT_EPOCH":8285,"BSTAR":0.0022696266,"MEAN_MOTION_DOT":0.00014807,"MEAN_MOTION_DDOT":0}]
